#aV2021 10 31  0  0  0.00000000     288 DD+AD WGS84 FIT  NGA
## 2182      0.00000000   300.00000000 59518 0.0000000000000
+   32     1  2  3  4  5  6  7  8  9 10 11 12 13 14 15 16 17
+         18 19 20 21 22 23 24 25 26 27 28 29 30 31 32  0  0
+          0  0  0  0  0  0  0  0  0  0  0  0  0  0  0  0  0
+          0  0  0  0  0  0  0  0  0  0  0  0  0  0  0  0  0
+          0  0  0  0  0  0  0  0  0  0  0  0  0  0  0  0  0
++         2  2  2  2  2  2  2  2  2  2  2  2  2  2  2  2  2
++         2  2  2  2  2  2  2  2  2  2  2  2  2  2  2  0  0
++         0  0  0  0  0  0  0  0  0  0  0  0  0  0  0  0  0
++         0  0  0  0  0  0  0  0  0  0  0  0  0  0  0  0  0
++         0  0  0  0  0  0  0  0  0  0  0  0  0  0  0  0  0
%c cc cc ccc ccc cccc cccc cccc cccc ccccc ccccc ccccc ccccc
%c cc cc ccc ccc cccc cccc cccc cccc ccccc ccccc ccccc ccccc
%f  0.0000000  0.000000000  0.00000000000  0.000000000000000
%f  0.0000000  0.000000000  0.00000000000  0.000000000000000
%i    0    0    0    0      0      0      0      0         0
%i    0    0    0    0      0      0      0      0         0
/*      NGA, ST. LOUIS,MO.                                  
/*   EPHEMERIS COMPUTED FROM 2 DAYS OF DATA                 
/*   EPOCHA v7 SMOOTHER                                     
/*   G2139 IERS2010 SATIGS SATAPC                           
*  2021 10 31  1 10  0.00000000
P  1    504.913558 -15470.676874 -21807.094875    524.328361                    
V  1  25680.199713  -8440.917799   6992.770747     -0.106445                    
P  2 -20284.933350  15447.492425   8250.689167   -639.906848                    
V  2  -9658.189300   1835.855791 -29470.971871     -0.016973                    
P  3  -8331.372762 -20396.635957 -15012.928630     -2.541903                    
V  3  15523.075835  10770.334143 -23311.573499     -0.070368                    
P  4   -355.699657 -25287.812468   7996.558854   -202.842460                    
V  4   4735.904355  -9395.248822 -29572.529057      0.006876                    
P  5  -5803.898096  14469.154223  21319.274019    -59.442036                    
V  5 -22077.429450 -16397.366544   5230.031032     -0.012764                    
P  6 -25449.040878   5232.255288  -5593.038096    106.514428                    
V  6   6079.127518  -4237.541021 -31212.081176      0.087047                    
P  7 -16021.195002  -9153.798660  19645.314783    270.868072                    
V  7  22287.388070  -9035.149602  13749.063815      0.057905                    
P  8   6406.194991 -25359.915309   3458.699632    -42.177461                    
V  8   2179.984459   4841.745819  31670.226571     -0.015397                    
P  9  -9200.473308 -18293.388502  16828.337941   -361.902728                    
V  9   5290.494631 -20970.640231 -19843.943990      0.000440                    
P 10  22611.440512   9901.257162 -10060.812205   -235.437858                    
V 10   8558.491160   9791.576771  28241.806287     -0.082835                    
P 11 -22760.078803  11826.705026   6859.181799     20.847749                    
V 11  -9127.199485    -59.457255 -30156.000960     -0.007730                    
P 12   5578.075717  20672.591260 -16053.229764   -119.275141                    
V 12 -15326.516649 -12699.457073 -21895.618517     -0.055221                    
P 13 -13114.282074  21179.574810   8839.792585    207.409106                    
V 13   1078.295523 -11695.542792  29273.952697      0.056045                    
P 14 -22197.705307 -10462.687079 -10232.152725    -29.255663                    
V 14  -7829.736462 -10681.199573  27852.474837     -0.072082                    
P 15  -3214.814891  26027.518603   2434.584943   -110.051999                    
V 15  -3911.906927  -3823.865982  31050.228044      0.027898                    
P 16  10287.749673 -10729.678724  21754.975750   -415.957475                    
V 16  20058.421201  19826.559946    737.881330     -0.063823                    
P 17 -13759.376403  -4994.745253 -21725.375234    526.802045                    
V 17   6845.766631 -27758.336191   2023.061247      0.054299                    
P 18  16807.838136   8010.752630  18971.202551    302.818644                    
V 18 -22370.521320   8902.711908  15957.055407     -0.054779                    
P 19 -15956.831874   4480.594342 -20980.401316     72.872216                    
V 19   6490.782175 -25211.275363 -10615.641033      0.049969                    
P 20 -15669.696445   7540.749729  19983.638573    518.371410                    
V 20 -21118.784516 -14485.750518 -11341.960161     -0.001878                    
P 21   9362.273989 -17273.486630 -16911.878128    149.504564                    
V 21  21937.449074  -7433.328687  19531.140941      0.012020                    
P 22  -1403.811586 -18070.182401 -19309.355152   -476.446508                    
V 22  21462.063435  12722.735844 -13142.348843      0.091283                    
P 23  20501.172707  16940.004864    750.917558     38.695018                    
V 23  -2378.019874   1422.795874  31792.061055     -0.045366                    
P 24  -4357.268895  17704.071368 -19452.707793    261.287862                    
V 24 -22891.047572   8447.592051  13410.353322      0.049943                    
P 25  15532.655630  20276.400360  -8049.837155    232.942917                    
V 25  -9064.029664  -4414.754162 -29318.777968      0.060280                    
P 26  20163.033636   -619.060961  17358.883750    150.420275                    
V 26  16477.435418  14878.082684 -18251.171111      0.039049                    
P 27  12108.298742 -19706.148164  12529.349072   -213.103491                    
V 27   -591.595808  16468.495373  26459.590937     -0.048309                    
P 28 -20276.633729  -5291.111206 -15651.142748    472.315126                    
V 28 -13267.751833 -16323.727310  22156.125569     -0.073402                    
P 29   4802.496431  21400.640890  14889.973539   -433.799809                    
V 29  -6242.987922  17979.699508 -23824.061049     -0.053657                    
P 30 -23632.929238  -1542.459581  12325.641761   -487.160074                    
V 30  13805.447029  -7580.074989  25427.886640     -0.033636                    
P 31  25887.833620  -6172.148169  -3406.911232   -147.692489                    
V 31  -3118.939264   3718.244882 -30952.965429     -0.019392                    
P 32  15320.020177    447.374722 -21568.230329    -16.155352                    
V 32  -4294.625889  27348.282658  -2647.710624     -0.044301                    
EOF
